[{"OBJECT_NAME":"SL-16 R/B","OBJECT_ID":"1993-059B","EPOCH":"2026-03-09T19:54:55.488096","MEAN_MOTION":14.17231639,"ECCENTRICITY":0.0018542,"INCLINATION":70.9927,"RA_OF_ASC_NODE":10.8302,"ARG_OF_PERICENTER":216.3546,"MEAN_ANOMALY":143.6319,"EPHEMERIS_TYPE":0,"CLASSIFICATION_TYPE":"U","NORAD_CAT_ID":22803,"ELEMENT_SET_NO":999,"REV_AT_EPOCH":67955,"BSTAR":-5.0913e-5,"MEAN_MOTION_DOT":-1.51e-6,"MEAN_MOTION_DDOT":0},{"OBJECT_NAME":"ARIANE 40 R/B","OBJECT_ID":"1993-061H","EPOCH":"2026-03-09T18:26:30.160896","MEAN_MOTION":14.32860991,"ECCENTRICITY":0.0009538,"INCLINATION":98.4915,"RA_OF_ASC_NODE":137.6545,"ARG_OF_PERICENTER":284.8597,"MEAN_ANOMALY":75.1531,"EPHEMERIS_TYPE":0,"CLASSIFICATION_TYPE":"U","NORAD_CAT_ID":22830,"ELEMENT_SET_NO":999,"REV_AT_EPOCH":69411,"BSTAR":0.00010374,"MEAN_MOTION_DOT":2.4e-6,"MEAN_MOTION_DDOT":0},{"OBJECT_NAME":"COSMOS 2278","OBJECT_ID":"1994-023A","EPOCH":"2026-03-09T17:44:23.372160","MEAN_MOTION":14.14378967,"ECCENTRICITY":0.0008033,"INCLINATION":71.0552,"RA_OF_ASC_NODE":174.9938,"ARG_OF_PERICENTER":13.0676,"MEAN_ANOMALY":347.0653,"EPHEMERIS_TYPE":0,"CLASSIFICATION_TYPE":"U","NORAD_CAT_ID":23087,"ELEMENT_SET_NO":999,"REV_AT_EPOCH":64481,"BSTAR":8.7573e-5,"MEAN_MOTION_DOT":1.2e-6,"MEAN_MOTION_DDOT":0},{"OBJECT_NAME":"SL-16 R/B","OBJECT_ID":"1994-023B","EPOCH":"2026-03-09T10:22:16.806144","MEAN_MOTION":14.1501196,"ECCENTRICITY":0.00057353,"INCLINATION":70.9985,"RA_OF_ASC_NODE":71.4279,"ARG_OF_PERICENTER":286.1076,"MEAN_ANOMALY":73.9415,"EPHEMERIS_TYPE":0,"CLASSIFICATION_TYPE":"U","NORAD_CAT_ID":23088,"ELEMENT_SET_NO":999,"REV_AT_EPOCH":64605,"BSTAR":-9.9429243e-5,"MEAN_MOTION_DOT":-2.4e-6,"MEAN_MOTION_DDOT":0},{"OBJECT_NAME":"SL-16 R/B","OBJECT_ID":"1994-074B","EPOCH":"2026-03-09T16:02:30.812352","MEAN_MOTION":14.79407993,"ECCENTRICITY":0.0005769,"INCLINATION":97.711,"RA_OF_ASC_NODE":99.487,"ARG_OF_PERICENTER":210.5144,"MEAN_ANOMALY":265.2991,"EPHEMERIS_TYPE":0,"CLASSIFICATION_TYPE":"U","NORAD_CAT_ID":23343,"ELEMENT_SET_NO":999,"REV_AT_EPOCH":68724,"BSTAR":8.8074e-5,"MEAN_MOTION_DOT":6.08e-6,"MEAN_MOTION_DDOT":0},{"OBJECT_NAME":"SL-16 R/B","OBJECT_ID":"1994-077B","EPOCH":"2026-03-09T20:06:30.647808","MEAN_MOTION":14.15561246,"ECCENTRICITY":0.0003088,"INCLINATION":70.9853,"RA_OF_ASC_NODE":352.1773,"ARG_OF_PERICENTER":211.9107,"MEAN_ANOMALY":148.1829,"EPHEMERIS_TYPE":0,"CLASSIFICATION_TYPE":"U","NORAD_CAT_ID":23405,"ELEMENT_SET_NO":999,"REV_AT_EPOCH":61625,"BSTAR":1.2085e-5,"MEAN_MOTION_DOT":-2.4e-7,"MEAN_MOTION_DDOT":0},{"OBJECT_NAME":"ARIANE 40+ R/B","OBJECT_ID":"1995-021B","EPOCH":"2026-03-09T19:50:08.258208","MEAN_MOTION":14.39772557,"ECCENTRICITY":0.000765,"INCLINATION":98.4496,"RA_OF_ASC_NODE":140.3073,"ARG_OF_PERICENTER":136.0582,"MEAN_ANOMALY":335.1619,"EPHEMERIS_TYPE":0,"CLASSIFICATION_TYPE":"U","NORAD_CAT_ID":23561,"ELEMENT_SET_NO":999,"REV_AT_EPOCH":61926,"BSTAR":0.00012902,"MEAN_MOTION_DOT":3.61e-6,"MEAN_MOTION_DDOT":0},{"OBJECT_NAME":"SL-16 R/B","OBJECT_ID":"1995-058B","EPOCH":"2026-03-09T16:53:04.660224","MEAN_MOTION":14.15495248,"ECCENTRICITY":0.0010793,"INCLINATION":71.022,"RA_OF_ASC_NODE":180.2258,"ARG_OF_PERICENTER":125.7746,"MEAN_ANOMALY":234.4382,"EPHEMERIS_TYPE":0,"CLASSIFICATION_TYPE":"U","NORAD_CAT_ID":23705,"ELEMENT_SET_NO":999,"REV_AT_EPOCH":56785,"BSTAR":0.00018469,"MEAN_MOTION_DOT":3.14e-6,"MEAN_MOTION_DDOT":0},{"OBJECT_NAME":"SL-16 R/B","OBJECT_ID":"1996-051B","EPOCH":"2026-03-09T17:47:08.854080","MEAN_MOTION":14.12415709,"ECCENTRICITY":0.0015055,"INCLINATION":70.7604,"RA_OF_ASC_NODE":175.1301,"ARG_OF_PERICENTER":147.984,"MEAN_ANOMALY":212.2198,"EPHEMERIS_TYPE":0,"CLASSIFICATION_TYPE":"U","NORAD_CAT_ID":24298,"ELEMENT_SET_NO":999,"REV_AT_EPOCH":52165,"BSTAR":8.7952e-5,"MEAN_MOTION_DOT":1.13e-6,"MEAN_MOTION_DDOT":0},{"OBJECT_NAME":"ORBVIEW 2 (SEASTAR)","OBJECT_ID":"1997-037A","EPOCH":"2026-03-09T10:01:45.865344","MEAN_MOTION":14.35494733,"ECCENTRICITY":0.00031049,"INCLINATION":98.8567,"RA_OF_ASC_NODE":232.7225,"ARG_OF_PERICENTER":72.66,"MEAN_ANOMALY":287.4924,"EPHEMERIS_TYPE":0,"CLASSIFICATION_TYPE":"U","NORAD_CAT_ID":24883,"ELEMENT_SET_NO":999,"REV_AT_EPOCH":50843,"BSTAR":0.00015259071,"MEAN_MOTION_DOT":3.92e-6,"MEAN_MOTION_DDOT":0},{"OBJECT_NAME":"SL-16 R/B","OBJECT_ID":"1998-043G","EPOCH":"2026-03-09T20:55:34.364928","MEAN_MOTION":14.26049928,"ECCENTRICITY":0.001021,"INCLINATION":98.8253,"RA_OF_ASC_NODE":22.2366,"ARG_OF_PERICENTER":19.8771,"MEAN_ANOMALY":340.2805,"EPHEMERIS_TYPE":0,"CLASSIFICATION_TYPE":"U","NORAD_CAT_ID":25400,"ELEMENT_SET_NO":999,"REV_AT_EPOCH":43901,"BSTAR":6.5699e-5,"MEAN_MOTION_DOT":1.12e-6,"MEAN_MOTION_DDOT":0},{"OBJECT_NAME":"SL-16 R/B","OBJECT_ID":"1998-045B","EPOCH":"2026-03-09T17:08:48.193152","MEAN_MOTION":14.16190002,"ECCENTRICITY":0.0006733,"INCLINATION":71.0118,"RA_OF_ASC_NODE":181.5219,"ARG_OF_PERICENTER":8.0336,"MEAN_ANOMALY":352.0894,"EPHEMERIS_TYPE":0,"CLASSIFICATION_TYPE":"U","NORAD_CAT_ID":25407,"ELEMENT_SET_NO":999,"REV_AT_EPOCH":42710,"BSTAR":0.00011334,"MEAN_MOTION_DOT":1.77e-6,"MEAN_MOTION_DDOT":0},{"OBJECT_NAME":"ISS (ZARYA)","OBJECT_ID":"1998-067A","EPOCH":"2026-03-09T16:57:57.785184","MEAN_MOTION":15.485472,"ECCENTRICITY":0.000802,"INCLINATION":51.6323,"RA_OF_ASC_NODE":72.271,"ARG_OF_PERICENTER":174.6781,"MEAN_ANOMALY":185.4294,"EPHEMERIS_TYPE":0,"CLASSIFICATION_TYPE":"U","NORAD_CAT_ID":25544,"ELEMENT_SET_NO":999,"REV_AT_EPOCH":55633,"BSTAR":0.0001551,"MEAN_MOTION_DOT":7.976e-5,"MEAN_MOTION_DDOT":0},{"OBJECT_NAME":"CZ-4B R/B","OBJECT_ID":"1999-025C","EPOCH":"2026-03-09T17:53:15.357696","MEAN_MOTION":14.18265283,"ECCENTRICITY":0.0036733,"INCLINATION":98.6626,"RA_OF_ASC_NODE":113.0256,"ARG_OF_PERICENTER":346.471,"MEAN_ANOMALY":122.2359,"EPHEMERIS_TYPE":0,"CLASSIFICATION_TYPE":"U","NORAD_CAT_ID":25732,"ELEMENT_SET_NO":999,"REV_AT_EPOCH":38817,"BSTAR":4.9046e-5,"MEAN_MOTION_DOT":5.8e-7,"MEAN_MOTION_DDOT":0},{"OBJECT_NAME":"OKEAN-O","OBJECT_ID":"1999-039A","EPOCH":"2026-03-09T17:16:10.735680","MEAN_MOTION":14.80335142,"ECCENTRICITY":0.0001272,"INCLINATION":97.9442,"RA_OF_ASC_NODE":128.6108,"ARG_OF_PERICENTER":70.3084,"MEAN_ANOMALY":289.8265,"EPHEMERIS_TYPE":0,"CLASSIFICATION_TYPE":"U","NORAD_CAT_ID":25860,"ELEMENT_SET_NO":999,"REV_AT_EPOCH":43439,"BSTAR":0.00011362,"MEAN_MOTION_DOT":8.14e-6,"MEAN_MOTION_DDOT":0},{"OBJECT_NAME":"SL-16 R/B","OBJECT_ID":"1999-039B","EPOCH":"2026-03-09T18:24:22.966272","MEAN_MOTION":14.8173167,"ECCENTRICITY":0.0013507,"INCLINATION":97.9966,"RA_OF_ASC_NODE":127.8636,"ARG_OF_PERICENTER":255.8246,"MEAN_ANOMALY":104.1466,"EPHEMERIS_TYPE":0,"CLASSIFICATION_TYPE":"U","NORAD_CAT_ID":25861,"ELEMENT_SET_NO":999,"REV_AT_EPOCH":43687,"BSTAR":9.8725e-5,"MEAN_MOTION_DOT":7.25e-6,"MEAN_MOTION_DDOT":0},{"OBJECT_NAME":"DELTA 2 R/B","OBJECT_ID":"1999-041E","EPOCH":"2026-03-09T00:24:29.950848","MEAN_MOTION":14.11835935,"ECCENTRICITY":0.05023745,"INCLINATION":51.7627,"RA_OF_ASC_NODE":303.9675,"ARG_OF_PERICENTER":346.4504,"MEAN_ANOMALY":12.3345,"EPHEMERIS_TYPE":0,"CLASSIFICATION_TYPE":"U","NORAD_CAT_ID":25876,"ELEMENT_SET_NO":999,"REV_AT_EPOCH":36293,"BSTAR":0.00025878282,"MEAN_MOTION_DOT":1.371e-5,"MEAN_MOTION_DDOT":0}]
