SL-16 R/B               
1 22803U 93059B   26068.82980889 -.00000151  00000+0 -50913-4 0  9995
2 22803  70.9927  10.8302 0018542 216.3546 143.6319 14.17231639679558
ARIANE 40 R/B           
1 22830U 93061H   26068.76840464  .00000240  00000+0  10374-3 0  9998
2 22830  98.4915 137.6545 0009538 284.8597  75.1531 14.32860991694118
COSMOS 2278             
1 23087U 94023A   26068.73915940  .00000120  00000+0  87573-4 0  9994
2 23087  71.0552 174.9938 0008033  13.0676 347.0653 14.14378967644811
SL-16 R/B               
1 23088U 94023B   26068.43213896 -.00000240  00000+0 -99429-4 0  9991
2 23088  70.9985  71.4279 0005735 286.1076  73.9415 14.15011960646059
SL-16 R/B               
1 23343U 94074B   26068.66841218  .00000608  00000+0  88074-4 0  9991
2 23343  97.7110  99.4870 0005769 210.5144 265.2991 14.79407993687247
SL-16 R/B               
1 23405U 94077B   26068.83785472 -.00000024  00000+0  12085-4 0  9993
2 23405  70.9853 352.1773 0003088 211.9107 148.1829 14.15561246616254
ARIANE 40+ R/B          
1 23561U 95021B   26068.82648447  .00000361  00000+0  12902-3 0  9995
2 23561  98.4496 140.3073 0007650 136.0582 335.1619 14.39772557619262
SL-16 R/B               
1 23705U 95058B   26068.70352616  .00000314  00000+0  18469-3 0  9994
2 23705  71.0220 180.2258 0010793 125.7746 234.4382 14.15495248567859
SL-16 R/B               
1 24298U 96051B   26068.74107470  .00000113  00000+0  87952-4 0  9997
2 24298  70.7604 175.1301 0015055 147.9840 212.2198 14.12415709521656
ORBVIEW 2 (SEASTAR)     
1 24883U 97037A   26068.41789196  .00000392  00000+0  15259-3 0  9996
2 24883  98.8567 232.7225 0003104  72.6600 287.4924 14.35494733508431
SL-16 R/B               
1 25400U 98043G   26068.87192552  .00000112  00000+0  65699-4 0  9998
2 25400  98.8253  22.2366 0010210  19.8771 340.2805 14.26049928439010
SL-16 R/B               
1 25407U 98045B   26068.71444668  .00000177  00000+0  11334-3 0  9995
2 25407  71.0118 181.5219 0006733   8.0336 352.0894 14.16190002427103
ISS (ZARYA)             
1 25544U 98067A   26068.70691881  .00007976  00000+0  15510-3 0  9995
2 25544  51.6323  72.2710 0008020 174.6781 185.4294 15.48547200556336
CZ-4B R/B               
1 25732U 99025C   26068.74531664  .00000058  00000+0  49046-4 0  9991
2 25732  98.6626 113.0256 0036733 346.4710 122.2359 14.18265283388174
OKEAN-O                 
1 25860U 99039A   26068.71956870  .00000814  00000+0  11362-3 0  9994
2 25860  97.9442 128.6108 0001272  70.3084 289.8265 14.80335142434392
SL-16 R/B               
1 25861U 99039B   26068.76693248  .00000725  00000+0  98725-4 0  9997
2 25861  97.9966 127.8636 0013507 255.8246 104.1466 14.81731670436879
DELTA 2 R/B             
1 25876U 99041E   26068.01701332  .00001371  00000+0  25878-3 0  9994
2 25876  51.7627 303.9675 0502374 346.4504  12.3345 14.11835935362939
